NORAD_CAT_ID,OBJECT_NAME,OBJECT_TYPE,EPOCH,MEAN_MOTION,ECCENTRICITY,INCLINATION,RA_OF_ASC_NODE,ARG_OF_PERICENTER,MEAN_ANOMALY,BSTAR,MEAN_MOTION_DOT,MEAN_MOTION_DDOT,TLE_LINE0,TLE_LINE1,TLE_LINE2,SEMIMAJOR_AXIS,PERIOD,APOGEE,PERIGEE,DECAYED
55763.0,STARLINK-5593,PAYLOAD,2023-06-09 13:11:19,14.98333892,0.0003475,70.0,256.0904,271.2149,88.8612,4.7672e-05,4.76e-06,0.0,0 STARLINK-5593,1 55763U 23028Y   23160.54953152  .00000476  00000-0  47672-4 0  9994,2 55763  70.0000 256.0904 0003475 271.2149  88.8612 14.98333892 15634,6950.181,96.107,574.461,569.631,0.0
55763.0,STARLINK-5593,PAYLOAD,2023-06-09 16:23:35,14.98334119,0.0003475,70.0,255.7538,271.2866,88.7895,4.8283e-05,4.83e-06,0.0,0 STARLINK-5593,1 55763U 23028Y   23160.68305099  .00000483  00000-0  48283-4 0  9997,2 55763  70.0000 255.7538 0003475 271.2866  88.7895 14.98334119 15656,6950.18,96.107,574.46,569.63,0.0
55763.0,STARLINK-5593,PAYLOAD,2023-06-10 06:48:48,14.98327453,0.0003435,70.0001,254.2391,271.337,88.7395,-2.6089e-05,-4.04e-06,0.0,0 STARLINK-5593,1 55763U 23028Y   23161.28389711 -.00000404  00000-0 -26089-4 0  9992,2 55763  70.0001 254.2391 0003435 271.3370  88.7395 14.98327453 15743,6950.201,96.107,574.453,569.678,0.0
55763.0,STARLINK-5593,PAYLOAD,2023-06-10 13:13:20,14.98329346,0.0003463,70.0,253.566,270.6543,89.4219,-4.1865e-05,-5.93e-06,0.0,0 STARLINK-5593,1 55763U 23028Y   23161.55093647 -.00000593  00000-0 -41865-4 0  9990,2 55763  70.0000 253.5660 0003463 270.6543  89.4219 14.98329346 15788,6950.195,96.107,574.467,569.653,0.0
55763.0,STARLINK-5593,PAYLOAD,2023-06-10 14:49:28,14.98329219,0.000347,70.0001,253.3977,270.6358,89.4403,-4.2744e-05,-6.03e-06,0.0,0 STARLINK-5593,1 55763U 23028Y   23161.61769661 -.00000603  00000-0 -42744-4 0  9992,2 55763  70.0001 253.3977 0003470 270.6358  89.4403 14.98329219 15795,6950.195,96.107,574.472,569.649,0.0
55763.0,STARLINK-5593,PAYLOAD,2023-06-11 06:50:49,14.98333922,0.0003506,69.9998,251.7145,270.481,89.5947,-7.4042e-06,-1.81e-06,0.0,0 STARLINK-5593,1 55763U 23028Y   23162.28529234 -.00000181  00000-0 -74042-5 0  9994,2 55763  69.9998 251.7145 0003506 270.4810  89.5947 14.98333922 15898,6950.181,96.107,574.482,569.609,0.0
55763.0,STARLINK-5593,PAYLOAD,2023-06-11 13:15:21,14.9833413,0.0003503,70.0,251.0413,270.4688,89.607,-1.6777e-06,-1.13e-06,0.0,0 STARLINK-5593,1 55763U 23028Y   23162.55233141 -.00000113  00000-0 -16777-5 0  9999,2 55763  70.0000 251.0413 0003503 270.4688  89.6070 14.98334130 15931,6950.18,96.107,574.48,569.61,0.0
55763.0,STARLINK-5593,PAYLOAD,2023-06-12 11:41:14,14.98326978,0.0003495,70.0001,248.6851,269.3276,90.7482,7.7538e-07,-8.4e-07,0.0,0 STARLINK-5593,1 55763U 23028Y   23163.48697489 -.00000084  00000-0  77538-6 0  9990,2 55763  70.0001 248.6851 0003495 269.3276  90.7482 14.98326978 16077,6950.202,96.107,574.496,569.638,0.0
55763.0,STARLINK-5593,PAYLOAD,2023-06-13 05:18:43,14.98329868,0.0003424,70.0002,246.8342,270.6122,89.4644,-4.1667e-05,-5.9e-06,0.0,0 STARLINK-5593,1 55763U 23028Y   23164.22133487 -.00000590  00000-0 -41667-4 0  9991,2 55763  70.0002 246.8342 0003424 270.6122  89.4644 14.98329868 16188,6950.193,96.107,574.438,569.679,0.0
55763.0,STARLINK-5593,PAYLOAD,2023-06-13 14:55:31,14.98329359,0.0003455,70.0002,245.8245,270.1753,89.901,-3.2749e-05,-4.84e-06,0.0,0 STARLINK-5593,1 55763U 23028Y   23164.62189483 -.00000484  00000-0 -32749-4 0  9995,2 55763  70.0002 245.8245 0003455 270.1753  89.9010 14.98329359 16242,6950.195,96.107,574.461,569.659,0.0
55763.0,STARLINK-5593,PAYLOAD,2023-06-14 05:20:44,14.98328484,0.0003529,69.9997,244.309,270.4333,89.6421,2.5885e-05,2.16e-06,0.0,0 STARLINK-5593,1 55763U 23028Y   23165.22273333  .00000216  00000-0  25885-4 0  9994,2 55763  69.9997 244.3090 0003529 270.4333  89.6421 14.98328484 16334,6950.198,96.107,574.515,569.61,0.0
55763.0,STARLINK-5593,PAYLOAD,2023-06-14 22:58:12,14.98330232,0.0003567,69.9995,242.457,271.7373,88.3377,-7.8877e-06,-1.87e-06,0.0,0 STARLINK-5593,1 55763U 23028Y   23165.95709323 -.00000187  00000-0 -78877-5 0  9996,2 55763  69.9995 242.4570 0003567 271.7373  88.3377 14.98330232 16446,6950.192,96.107,574.536,569.578,0.0
55763.0,STARLINK-5593,PAYLOAD,2023-06-15 13:23:25,14.98329671,0.0003581,69.9994,240.9418,269.8752,90.1997,1.8797e-05,1.31e-06,0.0,0 STARLINK-5593,1 55763U 23028Y   23166.55793310  .00000131  00000-0  18797-4 0  9993,2 55763  69.9994 240.9418 0003581 269.8752  90.1997 14.98329671 16538,6950.194,96.107,574.548,569.57,0.0
55763.0,STARLINK-5593,PAYLOAD,2023-06-15 14:59:33,14.98330396,0.0003615,69.9995,240.7735,270.4248,89.6497,3.0933e-05,2.76e-06,0.0,0 STARLINK-5593,1 55763U 23028Y   23166.62469232  .00000276  00000-0  30933-4 0  9990,2 55763  69.9995 240.7735 0003615 270.4248  89.6497 14.98330396 16540,6950.192,96.107,574.569,569.544,0.0
55763.0,STARLINK-5593,PAYLOAD,2023-06-16 10:13:09,14.9833595,0.0003557,69.9998,238.7541,268.7538,91.3213,7.0252e-05,7.45e-06,0.0,0 STARLINK-5593,1 55763U 23028Y   23167.42580616  .00000745  00000-0  70252-4 0  9998,2 55763  69.9998 238.7541 0003557 268.7538  91.3213 14.98335950 16662,6950.174,96.107,574.512,569.567,0.0
55763.0,STARLINK-5593,PAYLOAD,2023-06-16 11:49:17,14.98339525,0.0003586,69.9996,238.5856,269.9368,90.138,9.3606e-05,1.024e-05,0.0,0 STARLINK-5593,1 55763U 23028Y   23167.49256297  .00001024  00000-0  93606-4 0  9999,2 55763  69.9996 238.5856 0003586 269.9368  90.1380 14.98339525 16678,6950.163,96.106,574.521,569.536,0.0
55763.0,STARLINK-5593,PAYLOAD,2023-06-16 15:01:33,14.98341008,0.0003568,69.9996,238.2488,269.8256,90.2494,0.00010817,1.198e-05,0.0,0 STARLINK-5593,1 55763U 23028Y   23167.62608082  .00001198  00000-0  10817-3 0  9991,2 55763  69.9996 238.2488 0003568 269.8256  90.2494 14.98341008 16699,6950.159,96.106,574.504,569.544,0.0
55763.0,STARLINK-5593,PAYLOAD,2023-06-16 21:26:06,14.98324984,0.000327,70.0022,237.5774,268.2801,91.7983,4.6845e-05,4.66e-06,0.0,0 STARLINK-5593,1 55763U 23028Y   23167.89313176  .00000466  00000-0  46845-4 0  9995,2 55763  70.0022 237.5774 0003270 268.2801  91.7983 14.98324984 16739,6950.208,96.107,574.346,569.801,0.0
55763.0,STARLINK-5593,PAYLOAD,2023-06-17 08:39:03,14.98326751,0.0003422,69.9997,236.3975,269.6071,90.4696,-3.9549e-05,-5.65e-06,0.0,0 STARLINK-5593,1 55763U 23028Y   23168.36045306 -.00000565  00000-0 -39549-4 0  9990,2 55763  69.9997 236.3975 0003422 269.6071  90.4696 14.98326751 16809,6950.203,96.107,574.446,569.69,0.0
55763.0,STARLINK-5593,PAYLOAD,2023-06-17 21:28:07,14.98326287,0.0003299,70.0005,235.0515,273.7768,86.3014,-4.5242e-05,-6.33e-06,0.0,0 STARLINK-5593,1 55763U 23028Y   23168.89453534 -.00000633  00000-0 -45242-4 0  9997,2 55763  70.0005 235.0515 0003299 273.7768  86.3014 14.98326287 16889,6950.204,96.107,574.362,569.777,0.0
55763.0,STARLINK-5593,PAYLOAD,2023-06-18 03:52:39,14.98332752,0.000349,69.9998,234.3781,269.5145,90.5614,-7.804e-05,-1.024e-05,0.0,0 STARLINK-5593,1 55763U 23028Y   23169.16157158 -.00001024  00000-0 -78040-4 0  9998,2 55763  69.9998 234.3781 0003490 269.5145  90.5614 14.98332752 16921,6950.184,96.107,574.475,569.624,0.0
55763.0,STARLINK-5593,PAYLOAD,2023-06-18 22:00:00,14.98324445,0.0003784,70.0005,232.4734,271.2525,200.6981,0.00045966,5.395e-05,0.0,0 STARLINK-5593,1 55763U 23028Y   23169.91667824  .00005395  00000-0  45966-3 0  9990,2 55763  70.0005 232.4734 0003784 271.2525 200.6981 14.98324445 17032,6950.21,96.107,574.705,569.445,0.0
55763.0,STARLINK-5593,PAYLOAD,2023-06-19 10:19:12,14.98331402,0.0003681,69.9993,231.1797,271.3125,88.7612,9.6389e-05,1.057e-05,0.0,0 STARLINK-5593,1 55763U 23028Y   23170.43000655  .00001057  00000-0  96389-4 0  9999,2 55763  69.9993 231.1797 0003681 271.3125  88.7612 14.98331402 17119,6950.189,96.107,574.612,569.495,0.0
55763.0,STARLINK-5593,PAYLOAD,2023-06-20 10:21:13,14.98327622,0.0003285,70.0,228.6535,261.6152,98.4635,3.5435e-05,3.3e-06,0.0,0 STARLINK-5593,1 55763U 23028Y   23171.43141084  .00000330  00000-0  35435-4 0  9990,2 55763  70.0000 228.6535 0003285 261.6152  98.4635 14.98327622 17262,6950.2,96.107,574.348,569.782,0.0
55763.0,STARLINK-5593,PAYLOAD,2023-06-21 11:59:22,14.9833328,0.000366,69.9991,225.961,269.2365,90.8374,-1.6214e-05,-2.87e-06,0.0,0 STARLINK-5593,1 55763U 23028Y   23172.49956821 -.00000287  00000-0 -16214-4 0  9997,2 55763  69.9991 225.9610 0003660 269.2365  90.8374 14.98333280 17420,6950.183,96.107,574.592,569.504,0.0
55763.0,STARLINK-5593,PAYLOAD,2023-06-21 13:35:30,14.98333915,0.000366,69.9992,225.7927,269.2316,90.8423,-8.5658e-06,-1.95e-06,0.0,0 STARLINK-5593,1 55763U 23028Y   23172.56632746 -.00000195  00000-0 -85658-5 0  9999,2 55763  69.9992 225.7927 0003660 269.2316  90.8423 14.98333915 17437,6950.181,96.107,574.59,569.502,0.0
55763.0,STARLINK-5593,PAYLOAD,2023-06-22 13:37:31,14.98329583,0.0003715,69.9992,223.2685,268.5656,91.5077,9.6761e-06,2.2e-07,0.0,0 STARLINK-5593,1 55763U 23028Y   23173.56772889  .00000022  00000-0  96761-5 0  9997,2 55763  69.9992 223.2685 0003715 268.5656  91.5077 14.98329583 17586,6950.194,96.107,574.641,569.477,0.0
55763.0,STARLINK-5593,PAYLOAD,2023-06-23 13:39:32,14.98331923,0.0003748,69.999,220.7434,269.0702,91.0028,9.436e-06,1.9e-07,0.0,0 STARLINK-5593,1 55763U 23028Y   23174.56912694  .00000019  00000-0  94360-5 0  9997,2 55763  69.9990 220.7434 0003748 269.0702  91.0028 14.98331923 17731,6950.187,96.107,574.657,569.447,0.0
55763.0,STARLINK-5593,PAYLOAD,2023-06-24 20:06:05,14.98329928,0.0003734,69.9989,217.5453,269.6903,90.3828,1.1964e-05,5e-07,0.0,0 STARLINK-5593,1 55763U 23028Y   23175.83756809  .00000050  00000-0  11964-4 0  9995,2 55763  69.9989 217.5453 0003734 269.6903  90.3828 14.98329928 17921,6950.193,96.107,574.653,569.463,0.0
55763.0,STARLINK-5593,PAYLOAD,2023-06-25 08:55:10,14.9834232,0.0003456,69.9987,216.199,268.3712,91.7051,-0.00012721,-1.611e-05,0.0,0 STARLINK-5593,1 55763U 23028Y   23176.37164359 -.00001611  00000-0 -12721-3 0  9995,2 55763  69.9987 216.1990 0003456 268.3712  91.7051 14.98342320 18009,6950.155,96.106,574.422,569.618,0.0
